{
"type": "FeatureCollection",
"name": "GIM elevation",
"crs": { "type": "name", "properties": { "name": "urn:ogc:def:crs:OGC:1.3:CRS84" } },
"features": [
{ "type": "Feature", "properties": { "fid": 1, "Elevation": 0.0 }, "geometry": { "type": "Polygon", "coordinates": [ [ [ -118.390872343989486, -50.34041206087727 ], [ -118.288044696308063, -50.25382472214536 ], [ -118.217934936525296, -50.26278934194535 ], [ -118.096411352901768, -50.364270493095894 ], [ -117.95151784935068, -50.376195213623056 ], [ -117.848690201669214, -50.295645182755194 ], [ -117.685100762176063, -50.271752274825431 ], [ -117.572925146523573, -50.301616535709854 ], [ -117.460749530871098, -50.286686747847973 ], [ -117.390639771088317, -50.313556992990335 ], [ -117.20835439565306, -50.304601931103079 ], [ -117.124222683913672, -50.328478348713951 ], [ -117.11954869992816, -50.364270493095894 ], [ -116.979329180362612, -50.388116937410807 ], [ -116.843783644782533, -50.444704208477646 ], [ -116.722260061159005, -50.459584361917891 ], [ -116.717586077173479, -50.507169407004255 ], [ -116.586714525578927, -50.530943963944218 ], [ -116.507256797825107, -50.516086269240077 ], [ -116.469864925940968, -50.530943963944218 ], [ -116.362363294273962, -50.545796981114478 ], [ -116.208121822751863, -50.545796981114478 ], [ -116.170729950867695, -50.572520626151679 ], [ -116.063228319200718, -50.637781314065258 ], [ -116.002466527388975, -50.705911643901821 ], [ -116.067902303186273, -50.779854227176045 ], [ -116.095946207099374, -50.726627337683063 ], [ -116.119316127026991, -50.768031260060049 ], [ -116.166055966882183, -50.785764590059408 ], [ -116.091272223113876, -50.833020601103662 ], [ -116.025836447316593, -50.815305198992171 ], [ -115.997792543403477, -50.797583074634538 ], [ -115.951052703548285, -50.809398571164785 ], [ -115.932356767606208, -50.83892424145639 ], [ -116.021162463331095, -50.886126482541265 ], [ -116.067902303186273, -50.889075036054649 ], [ -116.264209630578065, -50.874330402112996 ], [ -116.465190941955427, -50.862531335293042 ], [ -116.437147038042326, -50.779854227176045 ], [ -116.535300701738237, -50.886126482541265 ], [ -116.61008444550653, -50.909709685247329 ], [ -116.553996637680328, -50.942117089543181 ], [ -116.502582813839581, -50.930335190971775 ], [ -116.460516957969929, -50.909709685247329 ], [ -116.296927518476721, -50.921496808038384 ], [ -116.385733214201593, -50.983330230045681 ], [ -116.250187678621543, -50.939171894746075 ], [ -116.198773854780825, -50.959784340767939 ], [ -116.156707998911145, -50.992156861156133 ], [ -116.166055966882183, -50.965671932203534 ], [ -116.128664094998044, -50.971558777540068 ], [ -116.142686046954594, -51.03038620260206 ], [ -116.273557598549104, -51.095010238371238 ], [ -116.469864925940968, -51.086203181664835 ], [ -116.329645406375363, -51.127288431917215 ], [ -116.488560861883002, -51.212277448422689 ], [ -116.787695836956246, -51.15661268264666 ], [ -116.661498269347277, -51.209349399766417 ], [ -116.811065756883877, -51.262025793683527 ], [ -116.582040541593429, -51.218132987203688 ], [ -116.483886877897518, -51.270799329633526 ], [ -116.582040541593429, -51.326326168306785 ], [ -116.820413724854916, -51.335087424683181 ], [ -116.773673884999724, -51.387619812782049 ], [ -116.778347868985264, -51.42260793698194 ], [ -116.843783644782533, -51.425522405725246 ], [ -117.180310491739945, -51.402201451109832 ], [ -117.222376347609583, -51.460481534168153 ], [ -117.287812123406894, -51.445918482863298 ], [ -117.343899931233096, -51.405117221050531 ], [ -117.311182043334497, -51.361361150217554 ], [ -117.376617819131766, -51.311720354013204 ], [ -117.493467418769754, -51.285418167718611 ], [ -117.820646297756127, -51.297109888842819 ], [ -117.937495897394129, -51.270799329633526 ], [ -118.082389400945218, -51.285418167718611 ], [ -118.250652824423923, -51.22106047733682 ], [ -118.250652824423923, -51.159544083232433 ], [ -118.171195096670075, -51.112619320582667 ], [ -117.918799961452038, -51.115553515473309 ], [ -117.764558489929883, -51.024506816468794 ], [ -117.783254425871959, -50.865481381986235 ], [ -117.694448730147101, -50.803491196389452 ], [ -117.886082073553382, -50.782809502003992 ], [ -118.059019481017614, -50.705911643901821 ], [ -118.274022744351498, -50.640745558578786 ], [ -118.386198360004002, -50.676301910983 ], [ -118.446960151815759, -50.661490035515769 ], [ -118.460982103772309, -50.551736878379401 ], [ -118.381524376018433, -50.468510207649352 ], [ -118.381524376018433, -50.468510207649352 ], [ -118.390872343989486, -50.34041206087727 ] ] ] } },
{ "type": "Feature", "properties": { "fid": 2, "Elevation": 0.0 }, "geometry": { "type": "Polygon", "coordinates": [ [ [ -116.107631167063218, -50.970822962674191 ], [ -116.128664094998058, -51.055732513194073 ], [ -116.049206367244224, -51.048754477883946 ], [ -116.072576287171813, -51.015318782619374 ], [ -116.040442647271377, -50.998408042699523 ], [ -116.107631167063218, -50.970822962674191 ] ] ] } },
{ "type": "Feature", "properties": { "fid": 3, "Elevation": 0.0 }, "geometry": { "type": "Polygon", "coordinates": [ [ [ -116.035768663285864, -50.896814101089511 ], [ -116.08484549513382, -50.907867677620423 ], [ -116.050959111238811, -50.936594696260315 ], [ -115.976175367470503, -50.919655266898019 ], [ -115.95864792752478, -50.893866037469969 ], [ -116.035768663285864, -50.896814101089511 ] ] ] } },
{ "type": "Feature", "properties": { "fid": 4, "Elevation": 0.0 }, "geometry": { "type": "Polygon", "coordinates": [ [ [ -115.900223127705772, -50.809029382124905 ], [ -115.971501383484963, -50.781701295831134 ], [ -115.888538167741984, -50.77061778948795 ], [ -115.900223127705772, -50.809029382124905 ] ] ] } },
{ "type": "Feature", "properties": { "fid": 5, "Elevation": 0.0 }, "geometry": { "type": "Polygon", "coordinates": [ [ [ -115.863999751818014, -50.774312583449571 ], [ -115.832450359915754, -50.791304876766667 ], [ -115.8114174319809, -50.769878795672966 ], [ -115.863999751818014, -50.774312583449571 ] ] ] } },
{ "type": "Feature", "properties": { "fid": 6, "Elevation": 0.0 }, "geometry": { "type": "Polygon", "coordinates": [ [ [ -116.021746711329286, -51.015318782619374 ], [ -116.020578215332918, -51.050590904906109 ], [ -115.959816423521175, -51.033693029581684 ], [ -116.021746711329286, -51.015318782619374 ] ] ] } },
{ "type": "Feature", "properties": { "fid": 7, "Elevation": 0.0 }, "geometry": { "type": "Polygon", "coordinates": [ [ [ -115.910739591673206, -51.065279699817459 ], [ -115.950468455550137, -51.099046245531049 ], [ -115.886201175749235, -51.094643311159764 ], [ -115.87568471178183, -51.069685429632891 ], [ -115.910739591673206, -51.065279699817459 ] ] ] } },
{ "type": "Feature", "properties": { "fid": 8, "Elevation": 0.0 }, "geometry": { "type": "Polygon", "coordinates": [ [ [ -116.239086966655947, -51.098312452251712 ], [ -116.082508503141028, -51.082900102998785 ], [ -115.987860327434262, -51.093175573197307 ], [ -115.975006871474108, -51.126921760899123 ], [ -116.019409719336522, -51.148183868433215 ], [ -116.08835098312295, -51.132788147881733 ], [ -116.136259318974538, -51.110785354160591 ], [ -116.180662166836981, -51.126921760899123 ], [ -116.227402006692145, -51.112252533120781 ], [ -116.239086966655947, -51.098312452251712 ] ] ] } },
{ "type": "Feature", "properties": { "fid": 9, "Elevation": 0.0 }, "geometry": { "type": "Polygon", "coordinates": [ [ [ -116.428383318069493, -51.213375418669401 ], [ -116.390991446185325, -51.16870350961824 ], [ -116.30802823044236, -51.145984794127443 ], [ -116.258951398594405, -51.164307211941797 ], [ -116.22039103071387, -51.179692420532767 ], [ -116.18884163881161, -51.176762300357503 ], [ -116.087182487126555, -51.214107384288788 ], [ -116.111720903050553, -51.239718850757043 ], [ -116.190010134807977, -51.235329325858224 ], [ -116.197021110786281, -51.211911452522372 ], [ -116.277647334536496, -51.201662386210188 ], [ -116.264793878576313, -51.222158238140572 ], [ -116.306859734445965, -51.22581725174782 ], [ -116.428383318069493, -51.213375418669401 ] ] ] } },
{ "type": "Feature", "properties": { "fid": 10, "Elevation": 0.0 }, "geometry": { "type": "Polygon", "coordinates": [ [ [ -116.45759571797899, -51.334722405757027 ], [ -116.344251606330133, -51.418600238964203 ], [ -116.2764788385401, -51.391630226657014 ], [ -116.274141846547323, -51.36099634052124 ], [ -116.376969494228746, -51.33034195195134 ], [ -116.45759571797899, -51.334722405757027 ] ] ] } },
{ "type": "Feature", "properties": { "fid": 11, "Elevation": 0.0 }, "geometry": { "type": "Polygon", "coordinates": [ [ [ -116.249603430623367, -51.409854950719954 ], [ -116.269467862561797, -51.412041429622228 ], [ -116.286995302507506, -51.442641156069442 ], [ -116.201695094771779, -51.466669424254434 ], [ -116.204032086764556, -51.451380171520427 ], [ -116.222728022706633, -51.412041429622228 ], [ -116.249603430623367, -51.409854950719954 ] ] ] } },
{ "type": "Feature", "properties": { "fid": 12, "Elevation": 0.0 }, "geometry": { "type": "Polygon", "coordinates": [ [ [ -116.197021110786281, -51.385067548206997 ], [ -116.194684118793504, -51.43098653364973 ], [ -116.137427814970906, -51.396004822725949 ], [ -116.174819686855031, -51.378503928497523 ], [ -116.197021110786281, -51.385067548206997 ] ] ] } },
{ "type": "Feature", "properties": { "fid": 13, "Elevation": 0.0 }, "geometry": { "type": "Polygon", "coordinates": [ [ [ -116.149112774934693, -51.426615283584631 ], [ -116.167808710876756, -51.447010872860702 ], [ -116.109383911057776, -51.449923785092018 ], [ -116.149112774934693, -51.426615283584631 ] ] ] } },
{ "type": "Feature", "properties": { "fid": 14, "Elevation": 0.0 }, "geometry": { "type": "Polygon", "coordinates": [ [ [ -116.49674033385773, -50.47222881283308 ], [ -116.523615741774449, -50.496764272432785 ], [ -116.464606693957236, -50.507169407004255 ], [ -116.437731286040531, -50.481152272041442 ], [ -116.49674033385773, -50.47222881283308 ] ] ] } },
{ "type": "Feature", "properties": { "fid": 15, "Elevation": 0.0 }, "geometry": { "type": "Polygon", "coordinates": [ [ [ -116.739203253106552, -51.3930884718255 ], [ -116.759067685045011, -51.42297225573968 ], [ -116.666756501330951, -51.438635215014692 ], [ -116.739203253106552, -51.3930884718255 ] ] ] } },
{ "type": "Feature", "properties": { "fid": 16, "Elevation": 0.0 }, "geometry": { "type": "Polygon", "coordinates": [ [ [ -116.79645955692915, -51.432443524074053 ], [ -116.811650004882097, -51.443733624467903 ], [ -116.683115445280293, -51.475403840700523 ], [ -116.657992781358132, -51.45720525266514 ], [ -116.79645955692915, -51.432443524074053 ] ] ] } },
{ "type": "Feature", "properties": { "fid": 17, "Elevation": 0.0 }, "geometry": { "type": "Polygon", "coordinates": [ [ [ -117.322574879299154, -51.467397356161165 ], [ -117.348573915218637, -51.493777047815797 ], [ -117.320530011305536, -51.526503026333849 ], [ -117.286059379412308, -51.53086471407714 ], [ -117.265026451477482, -51.50796119144772 ], [ -117.232892811577017, -51.491958248587352 ], [ -117.227634579593342, -51.465031535004435 ], [ -117.322574879299154, -51.467397356161165 ] ] ] } },
{ "type": "Feature", "properties": { "fid": 18, "Elevation": 0.0 }, "geometry": { "type": "Polygon", "coordinates": [ [ [ -117.368438347157095, -51.419875453725275 ], [ -117.381876051115469, -51.454110770856829 ], [ -117.433874122954364, -51.473402351294247 ], [ -117.467176258851197, -51.451562216557448 ], [ -117.488793434784213, -51.461027558221055 ], [ -117.488209186786051, -51.506506610652949 ], [ -117.385965787102805, -51.50396098252304 ], [ -117.385965787102805, -51.483227002151601 ], [ -117.346236923225874, -51.474130175784502 ], [ -117.338641699249422, -51.42497595699394 ], [ -117.368438347157095, -51.419875453725275 ] ] ] } },
{ "type": "Feature", "properties": { "fid": 19, "Elevation": 0.0 }, "geometry": { "type": "Polygon", "coordinates": [ [ [ -118.439949175837441, -50.696845648551736 ], [ -118.42592722388089, -50.717565348289646 ], [ -118.37334490404379, -50.727182096429111 ], [ -118.289213192304445, -50.713126183470948 ], [ -118.275191240347894, -50.690183800342183 ], [ -118.360491448083607, -50.704246592481859 ], [ -118.439949175837441, -50.696845648551736 ] ] ] } },
{ "type": "Feature", "properties": { "fid": 20, "Elevation": 0.0 }, "geometry": { "type": "Polygon", "coordinates": [ [ [ -118.116275784840226, -50.742712674471321 ], [ -118.130297736796749, -50.782624802799162 ], [ -118.099916840890899, -50.801091112018135 ], [ -118.075378424966914, -50.735317803366549 ], [ -118.116275784840226, -50.742712674471321 ] ] ] } },
{ "type": "Feature", "properties": { "fid": 21, "Elevation": 0.0 }, "geometry": { "type": "Polygon", "coordinates": [ [ [ -118.300898152268246, -50.768585528405282 ], [ -118.265843272376841, -50.793705463766351 ], [ -118.237799368463698, -50.792966834744128 ], [ -118.278696728337025, -50.764151197768378 ], [ -118.300898152268246, -50.768585528405282 ] ] ] } },
{ "type": "Feature", "properties": { "fid": 22, "Elevation": 0.0 }, "geometry": { "type": "Polygon", "coordinates": [ [ [ -118.421253239895378, -50.814382337630171 ], [ -118.430601207866417, -50.837263918089704 ], [ -118.34763799212341, -50.872671338799471 ], [ -118.284539208318932, -50.865297009536576 ], [ -118.362828440076356, -50.840215563234857 ], [ -118.421253239895378, -50.814382337630171 ] ] ] } },
{ "type": "Feature", "properties": { "fid": 23, "Elevation": 0.0 }, "geometry": { "type": "Polygon", "coordinates": [ [ [ -118.457476615783122, -50.885205021294119 ], [ -118.486689015692647, -50.93604242085847 ], [ -118.459813607775885, -50.930151075121252 ], [ -118.429432711869993, -50.899209265367432 ], [ -118.457476615783122, -50.885205021294119 ] ] ] } },
{ "type": "Feature", "properties": { "fid": 24, "Elevation": 0.0 }, "geometry": { "type": "Polygon", "coordinates": [ [ [ -118.134971720782275, -50.875620743860615 ], [ -118.126792248807604, -50.8911020583352 ], [ -118.130297736796749, -50.921312657204204 ], [ -118.153667656724366, -50.94414180274827 ], [ -118.092905864912623, -50.943405553603228 ], [ -118.012279641162408, -50.924258983090077 ], [ -118.066030456995875, -50.897735332698993 ], [ -118.106927816869174, -50.869721747086601 ], [ -118.134971720782275, -50.875620743860615 ] ] ] } },
{ "type": "Feature", "properties": { "fid": 25, "Elevation": 0.0 }, "geometry": { "type": "Polygon", "coordinates": [ [ [ -118.007605657176853, -50.798875540098862 ], [ -118.008774153173277, -50.815120628178612 ], [ -117.931653417412164, -50.806260371321194 ], [ -118.007605657176853, -50.798875540098862 ] ] ] } },
{ "type": "Feature", "properties": { "fid": 26, "Elevation": 0.0 }, "geometry": { "type": "Polygon", "coordinates": [ [ [ -118.001763177195002, -50.984617551622279 ], [ -118.08706338493073, -51.012562017402303 ], [ -118.106927816869174, -51.053712663733293 ], [ -118.068367448988639, -51.03387673527331 ], [ -118.032144073100838, -51.033141908137438 ], [ -118.001763177195002, -50.984617551622279 ] ] ] } },
{ "type": "Feature", "properties": { "fid": 27, "Elevation": 0.0 }, "geometry": { "type": "Polygon", "coordinates": [ [ [ -117.951517849350651, -51.058119494424055 ], [ -117.889587561542513, -51.045632384832409 ], [ -117.903609513499035, -51.070603237227118 ], [ -117.951517849350651, -51.058119494424055 ] ] ] } },
{ "type": "Feature", "properties": { "fid": 28, "Elevation": 0.0 }, "geometry": { "type": "Polygon", "coordinates": [ [ [ -118.283370712322537, -50.947086682732603 ], [ -118.283370712322537, -50.954448066544735 ], [ -118.397883319967789, -50.939724132981155 ], [ -118.392040839985881, -50.924258983090077 ], [ -118.283370712322537, -50.947086682732603 ] ] ] } },
{ "type": "Feature", "properties": { "fid": 29, "Elevation": 0.0 }, "geometry": { "type": "Polygon", "coordinates": [ [ [ -117.856869673643885, -51.003003962493004 ], [ -117.872060121596832, -51.014032312578614 ], [ -117.824151785745215, -51.018442918422586 ], [ -117.835836745709031, -51.002268645919735 ], [ -117.856869673643885, -51.003003962493004 ] ] ] } },
{ "type": "Feature", "properties": { "fid": 30, "Elevation": 0.0 }, "geometry": { "type": "Polygon", "coordinates": [ [ [ -118.173532088662824, -51.030202483073651 ], [ -118.214429448536123, -51.050774543603495 ], [ -118.167689608680917, -51.059588344788679 ], [ -118.173532088662824, -51.030202483073651 ] ] ] } },
{ "type": "Feature", "properties": { "fid": 31, "Elevation": -5.0 }, "geometry": { "type": "Polygon", "coordinates": [ [ [ -118.262922032385859, -50.679448832511007 ], [ -118.462734847766853, -50.69129417408125 ], [ -118.417163503908043, -50.745300603494833 ], [ -118.285123456317081, -50.733468903136071 ], [ -118.255911056407612, -50.683891186041308 ], [ -118.262922032385859, -50.679448832511007 ] ] ] } },
{ "type": "Feature", "properties": { "fid": 32, "Elevation": -5.0 }, "geometry": { "type": "Polygon", "coordinates": [ [ [ -118.174116336660987, -50.689813669922053 ], [ -118.231372640483642, -50.727551931943786 ], [ -118.178790320646527, -50.746779355859296 ], [ -118.136724464776876, -50.703876573025362 ], [ -118.174116336660987, -50.689813669922053 ] ] ] } },
{ "type": "Feature", "properties": { "fid": 33, "Elevation": -5.0 }, "geometry": { "type": "Polygon", "coordinates": [ [ [ -118.132050480791335, -50.72829159421471 ], [ -118.171779344668224, -50.782994200479315 ], [ -118.061940721008511, -50.823610130678212 ], [ -118.057266737023028, -50.730510510960926 ], [ -118.132050480791335, -50.72829159421471 ] ] ] } },
{ "type": "Feature", "properties": { "fid": 34, "Elevation": -5.0 }, "geometry": { "type": "Polygon", "coordinates": [ [ [ -118.274606992349689, -50.755650889255875 ], [ -118.340042768146958, -50.76895503698718 ], [ -118.276943984342452, -50.809583164590592 ], [ -118.202160240574116, -50.792597515855867 ], [ -118.274606992349689, -50.755650889255875 ] ] ] } },
{ "type": "Feature", "properties": { "fid": 35, "Elevation": -5.0 }, "geometry": { "type": "Polygon", "coordinates": [ [ [ -118.403141551951464, -50.795551985255408 ], [ -118.445207407821172, -50.801460363791875 ], [ -118.44988139180667, -50.845011588410856 ], [ -118.347053744125262, -50.889259314452552 ], [ -118.224361664505338, -50.86787815748022 ], [ -118.354064720103537, -50.830253012605901 ], [ -118.403141551951464, -50.795551985255408 ] ] ] } },
{ "type": "Feature", "properties": { "fid": 36, "Elevation": -5.0 }, "geometry": { "type": "Polygon", "coordinates": [ [ [ -118.18930678461399, -50.860503069911211 ], [ -118.146072432747914, -50.891470598363583 ], [ -118.170610848671899, -50.970271093874679 ], [ -117.982482993254735, -50.92389070255814 ], [ -118.077131168961515, -50.86787815748022 ], [ -118.175284832657411, -50.850175987284594 ], [ -118.18930678461399, -50.860503069911211 ] ] ] } },
{ "type": "Feature", "properties": { "fid": 37, "Elevation": -5.0 }, "geometry": { "type": "Polygon", "coordinates": [ [ [ -118.019874865138888, -50.782255402200732 ], [ -118.028054337113531, -50.824348275348825 ], [ -117.849274449667433, -50.803675813157874 ], [ -118.019874865138888, -50.782255402200732 ] ] ] } },
{ "type": "Feature", "properties": { "fid": 38, "Elevation": -5.0 }, "geometry": { "type": "Polygon", "coordinates": [ [ [ -118.001178929196826, -50.87156526378061 ], [ -117.900688273508152, -50.866403233297511 ], [ -117.961450065319895, -50.899577741244862 ], [ -118.022211857131623, -50.878938601452234 ], [ -118.001178929196826, -50.87156526378061 ] ] ] } },
{ "type": "Feature", "properties": { "fid": 39, "Elevation": -5.0 }, "geometry": { "type": "Polygon", "coordinates": [ [ [ -117.827073025736212, -50.829514961292013 ], [ -117.887834817547969, -50.856077457369203 ], [ -117.832915505718091, -50.853126815665981 ], [ -117.827073025736212, -50.829514961292013 ] ] ] } },
{ "type": "Feature", "properties": { "fid": 40, "Elevation": -5.0 }, "geometry": { "type": "Polygon", "coordinates": [ [ [ -117.855116929649313, -50.903262339647874 ], [ -117.878486849576873, -50.939355974886553 ], [ -117.836420993707222, -50.913577664004258 ], [ -117.855116929649313, -50.903262339647874 ] ] ] } },
{ "type": "Feature", "properties": { "fid": 41, "Elevation": -5.0 }, "geometry": { "type": "Polygon", "coordinates": [ [ [ -117.874981361587743, -50.958496330682664 ], [ -117.867970385609496, -50.996017984484254 ], [ -117.927563681424857, -51.017340306291821 ], [ -117.796692129830319, -51.029100150609551 ], [ -117.874981361587743, -50.958496330682664 ] ] ] } },
{ "type": "Feature", "properties": { "fid": 42, "Elevation": -5.0 }, "geometry": { "type": "Polygon", "coordinates": [ [ [ -117.92990067341762, -50.949663299689234 ], [ -117.984819985247455, -50.977628805390964 ], [ -118.119197024831166, -51.00778323614189 ], [ -118.130881984794968, -51.081248475217031 ], [ -118.032728321099057, -51.097395194275002 ], [ -118.074794176968709, -51.057017826069959 ], [ -118.000010433200401, -51.052610890528925 ], [ -117.987156977240218, -51.002636305663209 ], [ -117.89835128151536, -50.96732768286445 ], [ -117.92990067341762, -50.949663299689234 ] ] ] } },
{ "type": "Feature", "properties": { "fid": 43, "Elevation": -5.0 }, "geometry": { "type": "Polygon", "coordinates": [ [ [ -118.15892588870804, -51.015870115997416 ], [ -118.243057600447457, -51.058486711383885 ], [ -118.149577920737059, -51.083450632489139 ], [ -118.15892588870804, -51.015870115997416 ] ] ] } },
{ "type": "Feature", "properties": { "fid": 44, "Elevation": -5.0 }, "geometry": { "type": "Polygon", "coordinates": [ [ [ -118.272270000356897, -51.057752274551838 ], [ -118.33069480017592, -51.079046213115056 ], [ -118.278112480338805, -51.081248475217031 ], [ -118.272270000356897, -51.057752274551838 ] ] ] } },
{ "type": "Feature", "properties": { "fid": 45, "Elevation": -5.0 }, "geometry": { "type": "Polygon", "coordinates": [ [ [ -118.248900080429337, -50.895892851255589 ], [ -118.219687680519826, -50.943773679633225 ], [ -118.176453328653778, -50.891470598363583 ], [ -118.248900080429337, -50.895892851255589 ] ] ] } },
{ "type": "Feature", "properties": { "fid": 46, "Elevation": -5.0 }, "geometry": { "type": "Polygon", "coordinates": [ [ [ -117.873812865591375, -51.034244144471778 ], [ -118.012863889160585, -51.067299044705933 ], [ -117.880823841569651, -51.087854632550624 ], [ -117.873812865591375, -51.034244144471778 ] ] ] } },
{ "type": "Feature", "properties": { "fid": 47, "Elevation": -5.0 }, "geometry": { "type": "Polygon", "coordinates": [ [ [ -118.406647039940609, -50.92020773689314 ], [ -118.301482400266423, -50.92757337668867 ], [ -118.246563088436588, -50.963648156803934 ], [ -118.411321023926135, -50.950399449729296 ], [ -118.406647039940609, -50.92020773689314 ] ] ] } },
{ "type": "Feature", "properties": { "fid": 48, "Elevation": -5.0 }, "geometry": { "type": "Polygon", "coordinates": [ [ [ -118.472082815737892, -50.867140701221963 ], [ -118.481430783708944, -50.914314385417875 ], [ -118.505969199632901, -50.945982374600078 ], [ -118.431185455864593, -50.952607829895086 ], [ -118.42884846387183, -50.92094435334927 ], [ -118.398467567965923, -50.887785066856999 ], [ -118.472082815737892, -50.867140701221963 ] ] ] } },
{ "type": "Feature", "properties": { "fid": 49, "Elevation": 100.0 }, "geometry": { "type": "Polygon", "coordinates": [ [ [ -117.830578513725342, -50.35476583577514 ], [ -117.911204737475543, -50.405435351541982 ], [ -118.071288688979607, -50.417349724958413 ], [ -118.179958816642923, -50.385323052258087 ], [ -118.241889104451062, -50.300310366300771 ], [ -118.299145408273674, -50.324934950857468 ], [ -118.321346832204881, -50.447122551876859 ], [ -118.153083408726189, -50.488773059531042 ], [ -118.010526897167836, -50.610538567425642 ], [ -117.746446801985996, -50.734948029159128 ], [ -117.624923218362468, -50.566026689594096 ], [ -117.526769554666558, -50.603122843329338 ], [ -117.608564274413155, -50.638707660559582 ], [ -117.545465490608649, -50.810321530999353 ], [ -117.634271186333535, -51.248313790520321 ], [ -117.481198210807776, -51.274637224943262 ], [ -117.35850613118788, -51.312633353657219 ], [ -117.307092307347162, -51.350598042671756 ], [ -117.319945763307331, -51.402383692177487 ], [ -117.256846979502839, -51.447557058059481 ], [ -117.154019331821388, -51.394364398220596 ], [ -116.822166468849503, -51.414774381209966 ], [ -116.788280084954479, -51.379050932758737 ], [ -116.837356916802449, -51.333079784624069 ], [ -116.572108325624185, -51.313363740291933 ], [ -116.517189013794308, -51.26440212505338 ], [ -116.580287797598857, -51.230756458720769 ], [ -116.801133540914662, -51.270982093822312 ], [ -116.803470532907426, -51.240999049960926 ], [ -116.684283941276661, -51.209532408262 ], [ -116.811650004882068, -51.161192914211902 ], [ -116.630533125443151, -51.168520338914824 ], [ -116.497324581855878, -51.199282812477293 ], [ -116.374632502235997, -51.120137821995627 ], [ -116.507841045823312, -51.087854632550624 ], [ -116.274141846547323, -51.071704582314801 ], [ -116.156707998911145, -50.992156861156133 ], [ -116.241423958648667, -50.959968339294157 ], [ -116.402676406149126, -51.00410691550065 ], [ -116.334903638359094, -50.92904636471301 ], [ -116.460516957969929, -50.909709685247329 ], [ -116.54055893372194, -50.968799411684621 ], [ -116.662082517345468, -50.917261154451069 ], [ -116.430720310062256, -50.762303435958643 ], [ -116.431888806058623, -50.839108718184043 ], [ -116.028757687307561, -50.864190759526352 ], [ -115.951052703548285, -50.809398571164785 ], [ -116.091272223113876, -50.833020601103662 ], [ -116.243760950641487, -50.775605692386279 ], [ -116.101204439083105, -50.703136525352512 ], [ -116.091856471112067, -50.654267551812552 ], [ -116.47746014991742, -50.560830895882049 ], [ -116.933173588505596, -50.443401972380187 ], [ -117.451985810898293, -50.333140311794736 ], [ -117.830578513725342, -50.35476583577514 ] ] ] } },
{ "type": "Feature", "properties": { "fid": 50, "Elevation": 2000.0 }, "geometry": { "type": "Polygon", "coordinates": [ [ [ -116.308612478440565, -50.630925782535925 ], [ -116.446495006013407, -50.666489565924259 ], [ -116.586714525578955, -50.703506550648925 ], [ -116.698890141231445, -50.709426558281777 ], [ -116.785358844963582, -50.749367060113258 ], [ -116.98634015634093, -50.814382337630185 ], [ -117.042427964167132, -50.905841385040404 ], [ -116.962970236413312, -50.923522419110824 ], [ -117.054112924130948, -50.955920203400026 ], [ -117.175636507754476, -50.983881943663917 ], [ -117.194332443696553, -51.03534635458945 ], [ -117.156940571812385, -51.067666188857174 ], [ -117.166288539783423, -51.138103917431593 ], [ -117.259768219493793, -51.168886679594266 ], [ -117.34156293924039, -51.264036543608562 ], [ -117.091504796015116, -51.36920385589405 ], [ -116.972318204384351, -51.307885557117999 ], [ -117.007373084275756, -51.110235150041497 ], [ -117.002699100290201, -51.051509091111456 ], [ -116.883512508659493, -51.070603237227154 ], [ -116.776010876992544, -51.055916131503615 ], [ -116.610084445506573, -51.088221613628896 ], [ -116.610084445506573, -51.004474560675938 ], [ -116.736282013115613, -50.983881943663917 ], [ -116.701227133224208, -50.873408707563222 ], [ -116.558670621665883, -50.774497315486578 ], [ -116.383396222208901, -50.681299864255898 ], [ -116.278231582534687, -50.666489565924259 ], [ -116.289916542498474, -50.632408144343671 ], [ -116.308612478440565, -50.630925782535925 ] ] ] } }
]
}
