{
"type": "FeatureCollection",
"name": "GIM Parks",
"crs": { "type": "name", "properties": { "name": "urn:ogc:def:crs:OGC:1.3:CRS84" } },
"features": [
{ "type": "Feature", "properties": { "fid": 1, "Area": 2339.3157680696868, "Description": "NP", "Name": "Itrivta" }, "geometry": { "type": "Polygon", "coordinates": [ [ [ -118.421253239895634, -50.66371211474813 ], [ -118.238967864460363, -50.647414425168449 ], [ -117.855701177647731, -50.790935544746866 ], [ -117.682763770183513, -50.789458187485849 ], [ -117.804287353807041, -50.85589304773179 ], [ -117.797276377828766, -51.038469140886761 ], [ -117.881408089568097, -51.117754039371256 ], [ -118.241304856453141, -51.130954981998492 ], [ -118.587179671381548, -50.98553704517883 ], [ -118.54745080750466, -50.753987604813339 ], [ -118.421253239895634, -50.66371211474813 ] ] ] } },
{ "type": "Feature", "properties": { "fid": 2, "Area": 1401.645566305664, "Description": "NP", "Name": "Asolu" }, "geometry": { "type": "Polygon", "coordinates": [ [ [ -117.50281538674102, -51.183721031703961 ], [ -117.283138139421595, -51.213009431496253 ], [ -117.147592603841517, -50.925179671665489 ], [ -116.74562998108685, -50.715530783271092 ], [ -116.998025116304902, -50.632593436283045 ], [ -117.432705626958224, -50.830806543433368 ], [ -117.50281538674102, -51.183721031703961 ] ] ] } },
{ "type": "Feature", "properties": { "fid": 3, "Area": 1746.1988500501975, "Description": "NP", "Name": "Stradi" }, "geometry": { "type": "Polygon", "coordinates": [ [ [ -118.147825176742714, -50.439495049084854 ], [ -117.867386137611547, -50.677042382090512 ], [ -117.512163354712072, -50.552479312922173 ], [ -116.927915356522121, -50.582167107732836 ], [ -116.895197468623451, -50.463303669041387 ], [ -117.68510076217629, -50.347123456716261 ], [ -118.147825176742714, -50.439495049084854 ] ] ] } }
]
}
