{
"type": "FeatureCollection",
"name": "GIM river",
"crs": { "type": "name", "properties": { "name": "urn:ogc:def:crs:OGC:1.3:CRS84" } },
"features": [
{ "type": "Feature", "properties": { "fid": 1, "River": "Te Filic", "Catchment": "Te Filic", "Length": "700" }, "geometry": { "type": "LineString", "coordinates": [ [ -117.692111738154438, -50.790935544746851 ], [ -117.660562346252178, -50.788904166475476 ], [ -117.620833482375261, -50.76599888661044 ], [ -117.585778602483856, -50.762488215423211 ], [ -117.57058815453091, -50.74030946944314 ], [ -117.588991966473898, -50.728106679741792 ], [ -117.576138510513715, -50.685186793272152 ], [ -117.596002942452174, -50.670377721563362 ], [ -117.629889326347211, -50.651118942093206 ], [ -117.622878350368936, -50.602195795637023 ], [ -117.590160462470266, -50.591069798806942 ], [ -117.481490334806949, -50.593295208568691 ], [ -117.428908014969863, -50.56880991486269 ], [ -117.385673663103788, -50.574004828833402 ], [ -117.35996675118345, -50.593295208568691 ], [ -117.28985699140064, -50.614060626942134 ], [ -117.285183007415114, -50.631852264143447 ], [ -117.194040319697507, -50.685186793272152 ], [ -117.173007391762653, -50.708871589319948 ], [ -117.112245599950924, -50.69703068638524 ], [ -117.090044176019703, -50.708871589319948 ], [ -117.102897631979872, -50.750291205540492 ], [ -117.072516736074036, -50.770248294039774 ], [ -117.047978320150051, -50.799798707831336 ], [ -117.064337264099365, -50.833020601103698 ], [ -117.025776896218829, -50.870643514547609 ], [ -117.030450880204327, -50.902341217382912 ], [ -116.998901488302096, -50.909709685247357 ], [ -116.942813680475837, -50.924443122262836 ], [ -116.936971200493957, -50.941380808333832 ], [ -116.925286240530156, -50.950215413312321 ] ] } },
{ "type": "Feature", "properties": { "fid": 2, "River": "Te Filâd", "Catchment": "Te Filic", "Length": "300" }, "geometry": { "type": "LineString", "coordinates": [ [ -117.285183007415114, -50.631852264143447 ], [ -117.300373455368117, -50.657786336461925 ], [ -117.281677519426026, -50.697030686385226 ], [ -117.260644591491172, -50.725887649136865 ], [ -117.26648707147308, -50.746594514367935 ], [ -117.310889919335523, -50.77320417590569 ], [ -117.321406383302943, -50.827116213929926 ], [ -117.299204959371721, -50.873593047931372 ], [ -117.319069391310165, -50.908972890943588 ], [ -117.284014511418789, -50.945062097783214 ], [ -117.268824063465843, -50.971558777540103 ], [ -117.265318575476712, -51.02156684373913 ], [ -117.239611663556374, -51.039203883547785 ], [ -117.230263695585336, -51.067115471538216 ], [ -117.202219791672235, -51.090606919663067 ], [ -117.187029343719303, -51.130954981998471 ], [ -117.187029343719288, -51.152948169988782 ], [ -117.154311455820647, -51.169802518561596 ], [ -117.15664844781341, -51.181523651074642 ] ] } },
{ "type": "Feature", "properties": { "fid": 3, "River": "Te Solic", "Catchment": "Te Filic", "Length": "200" }, "geometry": { "type": "LineString", "coordinates": [ [ -117.112245599950924, -50.69703068638524 ], [ -117.050899560141062, -50.672599380213356 ], [ -117.011754944262321, -50.666304407623819 ], [ -116.969689088392641, -50.650748503545529 ], [ -116.856344976743799, -50.660008590944578 ], [ -116.841154528790852, -50.666304407623819 ], [ -116.787987960955562, -50.670377721563369 ], [ -116.753517329062348, -50.687777900411696 ], [ -116.738911129107635, -50.707021645332802 ], [ -116.707945985203537, -50.717010475680063 ], [ -116.674643849306705, -50.718490121374082 ], [ -116.63024100144429, -50.740309469443154 ] ] } },
{ "type": "Feature", "properties": { "fid": 4, "River": null, "Catchment": "Te Filic", "Length": null }, "geometry": { "type": "LineString", "coordinates": [ [ -116.856344976743799, -50.660008590944578 ], [ -116.841738776789043, -50.678893508750399 ], [ -116.843491520783616, -50.70480161619173 ], [ -116.813110624877751, -50.723298647260357 ] ] } },
{ "type": "Feature", "properties": { "fid": 5, "River": null, "Catchment": "Te Filic", "Length": null }, "geometry": { "type": "LineString", "coordinates": [ [ -116.753517329062348, -50.687777900411696 ], [ -116.62264577746781, -50.667045036444513 ] ] } },
{ "type": "Feature", "properties": { "fid": 6, "River": null, "Catchment": "Te Filic", "Length": null }, "geometry": { "type": "LineString", "coordinates": [ [ -117.038630352179084, -50.857737111292472 ], [ -116.928499604520269, -50.874330402113046 ], [ -116.903376940598108, -50.89276046549918 ] ] } },
{ "type": "Feature", "properties": { "fid": 7, "River": null, "Catchment": "Te Filic", "Length": null }, "geometry": { "type": "LineString", "coordinates": [ [ -117.030450880204327, -50.902341217382912 ], [ -117.014968308252335, -50.915051095169318 ], [ -117.018181672242406, -50.927020994154098 ], [ -117.037461856182659, -50.939724132981176 ], [ -117.071056116078594, -50.987008196986977 ] ] } },
{ "type": "Feature", "properties": { "fid": 8, "River": null, "Catchment": "Te Filic", "Length": null }, "geometry": { "type": "LineString", "coordinates": [ [ -117.268824063465843, -50.971558777540103 ], [ -117.231432191581732, -50.974685860669226 ], [ -117.196961559688518, -50.974317979464935 ], [ -117.152558711826103, -50.984617551622293 ], [ -117.131525783891249, -50.995282557189313 ] ] } },
{ "type": "Feature", "properties": { "fid": 9, "River": "Te Kadi", "Catchment": "Te filic", "Length": null }, "geometry": { "type": "LineString", "coordinates": [ [ -117.239611663556374, -51.039203883547785 ], [ -117.155479951817043, -51.059404741041497 ] ] } },
{ "type": "Feature", "properties": { "fid": 10, "River": "", "Catchment": "Te filic", "Length": null }, "geometry": { "type": "LineString", "coordinates": [ [ -117.230263695585336, -51.067115471538216 ], [ -117.187029343719303, -51.084184661617932 ], [ -117.165996415784463, -51.103448760639054 ], [ -117.155479951817043, -51.116653790522527 ], [ -117.126851799905751, -51.131688257084278 ], [ -117.112245599950995, -51.124905018266425 ] ] } },
{ "type": "Feature", "properties": { "fid": 11, "River": "Te Isor", "Catchment": "Te Filic", "Length": "100" }, "geometry": { "type": "LineString", "coordinates": [ [ -117.230263695585336, -51.067115471538216 ], [ -117.219455107618813, -51.086203181664878 ], [ -117.248083259530148, -51.102348171167229 ], [ -117.271453179457708, -51.12728843191725 ], [ -117.314103283325593, -51.16247529756447 ], [ -117.322282755300265, -51.185918307584863 ], [ -117.307092307347318, -51.199831955787126 ], [ -117.232308563578997, -51.2225241525909 ] ] } },
{ "type": "Feature", "properties": { "fid": 12, "River": null, "Catchment": "Te Filic", "Length": null }, "geometry": { "type": "LineString", "coordinates": [ [ -117.271453179457708, -51.12728843191725 ], [ -117.266194947474034, -51.169802518561589 ], [ -117.246622639534678, -51.172916235009374 ], [ -117.242240779548268, -51.178044250848913 ] ] } }
]
}
