{
"type": "FeatureCollection",
"name": "GIM outline box",
"crs": { "type": "name", "properties": { "name": "urn:ogc:def:crs:OGC:1.3:CRS84" } },
"features": [
{ "type": "Feature", "properties": { "fid": 1, "begin": "1", "end": "5" }, "geometry": { "type": "MultiPolygon", "coordinates": [ [ [ [ -118.246513732730918, -50.07275695955088 ], [ -118.246513732730918, -50.07275695955088 ], [ -115.638340141471744, -50.638787580575404 ], [ -116.260041893535259, -51.783674517905617 ], [ -118.868215484790554, -51.231490515004154 ], [ -118.246513732730918, -50.07275695955088 ] ] ] ] } }
]
}
